     2.100          NAVIGATION                              RINEX VERSION / TYPE
fic2rin                                 05/02/2016 00:04:35 PGM / RUN BY / DATE
                                                            END OF HEADER
13 16  5  1 18  0  0.0 -.148331746459D-04 -.261479726760D-11  .000000000000D+00
     .410000000000D+02  .402812500000D+02  .463876465174D-08 -.182572817928D+01
     .223889946938D-05  .447744235862D-02  .589713454247D-05  .515367606354D+04
     .648000000000D+05 -.614672899246D-07  .419319469905D+00  .931322574615D-07
     .971922657188D+00  .273500000000D+03  .199700282442D+01 -.816676875013D-08
     .178221709364D-09  .100000000000D+01  .189500000000D+04  .000000000000D+00
     .240000000000D+01  .000000000000D+00 -.111758708954D-07  .410000000000D+02
     .576060000000D+05  .400000000000D+01
14 16  5  1 18  0  0.0 -.114557333291D-04 -.216004991671D-11  .000000000000D+00
     .640000000000D+02  .411875000000D+02  .486877423256D-08 -.631623994703D-01
     .205822288990D-05  .853860250209D-02  .568665564060D-05  .515400353241D+04
     .648000000000D+05 -.651925802231D-07  .382448130911D+00  .484287738800D-07
     .964427509054D+00  .275312500000D+03 -.196617966275D+01 -.845035199108D-08
     .152863510236D-09  .100000000000D+01  .189500000000D+04  .000000000000D+00
     .240000000000D+01  .000000000000D+00 -.931322574615D-08  .640000000000D+02
     .576060000000D+05  .400000000000D+01
15 16  5  1 18  0  0.0 -.308973714709D-03 -.170530256582D-11  .000000000000D+00
     .520000000000D+02  .508750000000D+02  .550130057982D-08 -.764049366843D+00
     .283494591713D-05  .810013455339D-02  .561214983463D-05  .515357910347D+04
     .648000000000D+05  .132247805595D-06  .247114161640D+00  .521540641785D-07
     .931303117267D+00  .251781250000D+03  .482746761415D+00 -.868607609565D-08
     .297512392585D-09  .100000000000D+01  .189500000000D+04  .000000000000D+00
     .240000000000D+01  .000000000000D+00 -.107102096081D-07  .520000000000D+02
     .576060000000D+05  .400000000000D+01
16 16  5  1 18  0  0.0 -.206003896892D-04  .261479726760D-11  .000000000000D+00
     .260000000000D+02  .418125000000D+02  .387230415415D-08  .965299636444D+00
     .251457095146D-05  .877169123851D-02  .921636819839D-05  .515375103569D+04
     .648000000000D+05 -.745058059692D-08  .247184766455D+01  .139698386192D-06
     .990939543307D+00  .215843750000D+03  .371356907774D+00 -.781996859022D-08
    -.607168148133D-10  .100000000000D+01  .189500000000D+04  .000000000000D+00
     .240000000000D+01  .000000000000D+00 -.107102096081D-07  .260000000000D+02
     .576060000000D+05  .400000000000D+01
18 16  5  1 18  0  0.0  .510813202709D-03  .420641299570D-11  .000000000000D+00
     .620000000000D+02 -.359375000000D+01  .509342644737D-08  .162610992500D+01
    -.236555933952D-06  .170974982902D-01  .108554959297D-04  .515368688011D+04
     .648000000000D+05 -.275671482086D-06 -.772387408876D+00 -.415369868279D-06
     .925062092229D+00  .152093750000D+03 -.189177525279D+01 -.837392023596D-08
     .226438003480D-09  .100000000000D+01  .189500000000D+04  .000000000000D+00
     .240000000000D+01  .000000000000D+00 -.121071934700D-07  .620000000000D+02
     .576060000000D+05  .400000000000D+01
19 16  5  1 18  0  0.0 -.525710172951D-03  .000000000000D+00  .000000000000D+00
     .870000000000D+02  .346875000000D+01  .450590197462D-08 -.308222661431D+01
     .726431608200D-07  .107730901800D-01  .421516597271D-05  .515361367798D+04
     .648000000000D+05 -.447034835815D-07 -.274110766440D+01 -.173225998878D-06
     .973356271556D+00  .301750000000D+03  .753271282784D+00 -.816105422638D-08
     .600024993449D-10  .100000000000D+01  .189500000000D+04  .000000000000D+00
     .240000000000D+01  .000000000000D+00 -.149011611938D-07  .870000000000D+02
     .576060000000D+05  .400000000000D+01
20 16  5  1 18  0  0.0  .409514643252D-03  .238742359215D-11  .000000000000D+00
     .730000000000D+02 -.528125000000D+01  .503842415630D-08 -.717398034279D+00
    -.949949026108D-07  .461599638220D-02  .112242996693D-04  .515373198891D+04
     .648000000000D+05 -.931322574615D-08 -.824239719498D+00  .633299350739D-07
     .926288468158D+00  .147156250000D+03  .136416117717D+01 -.831748931396D-08
     .235366946835D-09  .100000000000D+01  .189500000000D+04  .000000000000D+00
     .240000000000D+01  .000000000000D+00 -.838190317154D-08  .730000000000D+02
     .576060000000D+05  .400000000000D+01
21 16  5  1 18  0  0.0 -.521142035723D-03 -.136424205266D-11  .000000000000D+00
     .630000000000D+02 -.830625000000D+02  .490198990184D-08  .250122026687D+01
    -.444985926151D-05  .233739512041D-01  .650621950626D-05  .515362884903D+04
     .648000000000D+05  .214204192162D-06 -.181475428803D+01 -.191852450371D-06
     .935850551303D+00  .235968750000D+03 -.179711812594D+01 -.800247619240D-08
    -.262153776900D-09  .100000000000D+01  .189500000000D+04  .000000000000D+00
     .240000000000D+01  .000000000000D+00 -.102445483208D-07  .630000000000D+02
     .576060000000D+05  .400000000000D+01
22 16  5  1 18  0  0.0  .351432245225D-03 -.784439180279D-11  .000000000000D+00
     .180000000000D+02  .195625000000D+02  .517557272624D-08 -.320385349907D+00
     .107660889626D-05  .765597121790D-02  .112969428301D-04  .515383923721D+04
     .648000000000D+05 -.409781932831D-07 -.771684672770D+00  .227242708206D-06
     .922951331119D+00  .144187500000D+03 -.193383796871D+01 -.843999441679D-08
     .329299430929D-09  .100000000000D+01  .189500000000D+04  .000000000000D+00
     .240000000000D+01  .000000000000D+00 -.176951289177D-07  .180000000000D+02
     .576060000000D+05  .400000000000D+01
23 16  5  1 18  0  0.0 -.171878375113D-03 -.170530256582D-11  .000000000000D+00
     .105000000000D+03  .424687500000D+02  .519878797896D-08 -.123212164382D+01
     .221282243729D-05  .108149811858D-01  .527128577232D-05  .515367946815D+04
     .648000000000D+05  .223517417908D-06  .304506581064D+00 -.651925802231D-07
     .946495370840D+00  .263562500000D+03 -.258733544578D+01 -.844499462507D-08
     .299655338991D-09  .100000000000D+01  .189500000000D+04  .000000000000D+00
     .240000000000D+01  .000000000000D+00 -.200234353542D-07  .105000000000D+03
     .576060000000D+05  .400000000000D+01
24 16  5  1 18  0  0.0 -.163819640875D-04 -.568434188608D-12  .000000000000D+00
     .500000000000D+02 -.291250000000D+02  .505878214715D-08 -.183119800804D+01
    -.159442424774D-05  .441156316083D-02  .687129795551D-05  .515362072754D+04
     .648000000000D+05  .260770320892D-07  .133047279242D+01 -.931322574615D-07
     .949551664181D+00  .241093750000D+03  .414267877726D+00 -.837070581635D-08
    -.267868300647D-09  .100000000000D+01  .189500000000D+04  .000000000000D+00
     .240000000000D+01  .000000000000D+00  .232830643654D-08  .500000000000D+02
     .576060000000D+05  .400000000000D+01
25 16  5  1 18  0  0.0 -.163407064974D-03 -.704858393874D-11  .000000000000D+00
     .750000000000D+02  .278750000000D+02  .398588031363D-08  .246457411193D+01
     .132806599140D-05  .557960267179D-02  .992231070995D-05  .515376729393D+04
     .648000000000D+05 -.819563865662D-07  .240247726980D+01 -.100582838058D-06
     .978633397426D+00  .196250000000D+03  .756278590313D+00 -.773782231136D-08
     .139291516336D-10  .100000000000D+01  .189500000000D+04  .000000000000D+00
     .240000000000D+01  .000000000000D+00  .558793544769D-08  .750000000000D+02
     .576060000000D+05  .400000000000D+01
26 16  5  1 18  0  0.0 -.349733512849D-03 -.129602995003D-10  .000000000000D+00
     .970000000000D+02  .384062500000D+02  .454697511405D-08  .167911708217D+01
     .225193798542D-05  .102659757249D-02  .941194593906D-05  .515375187683D+04
     .648000000000D+05  .279396772385D-07  .239395644786D+01  .670552253723D-07
     .960608337582D+00  .198906250000D+03  .146890611018D+00 -.809783730743D-08
    -.178578867098D-11  .100000000000D+01  .189500000000D+04  .000000000000D+00
     .240000000000D+01  .000000000000D+00  .698491930962D-08  .970000000000D+02
     .576060000000D+05  .400000000000D+01
27 16  5  1 18  0  0.0  .879582948983D-04  .397903932026D-11  .000000000000D+00
     .820000000000D+02  .406250000000D+01  .458376236067D-08  .939400351281D-01
     .115483999252D-06  .359577080235D-02  .429339706898D-05  .515363521957D+04
     .648000000000D+05  .502914190292D-07 -.283966511810D+01 -.223517417908D-07
     .971249741205D+00  .297687500000D+03  .253624128074D+00 -.834284751309D-08
     .339299847486D-10  .100000000000D+01  .189500000000D+04  .000000000000D+00
     .240000000000D+01  .000000000000D+00  .139698386192D-08  .820000000000D+02
     .576060000000D+05  .400000000000D+01
28 16  5  1 18  0  0.0  .520011875778D-03  .261479726760D-11  .000000000000D+00
     .180000000000D+02  .365312500000D+02  .392909223389D-08  .847725360993D+00
     .186264514923D-05  .197336793644D-01  .104513019323D-04  .515363274193D+04
     .648000000000D+05 -.279396772385D-06  .247682406859D+01 -.838190317154D-07
     .989639809350D+00  .200843750000D+03 -.161721265912D+01 -.813212444991D-08
     .417874549009D-10  .100000000000D+01  .189500000000D+04  .000000000000D+00
     .240000000000D+01  .000000000000D+00 -.111758708954D-07  .180000000000D+02
     .576060000000D+05  .400000000000D+01
30 16  5  1 18  0  0.0  .121594872326D-03  .329691829393D-11  .000000000000D+00
     .630000000000D+02 -.229375000000D+02  .495342061557D-08 -.261344496836D+01
    -.111758708954D-05  .198375026230D-02  .841170549393D-05  .515360967827D+04
     .648000000000D+05 -.931322574615D-08  .142175527740D+01 -.391155481339D-07
     .952227458382D+00  .216218750000D+03  .298644199455D+01 -.826355849609D-08
    -.383587406527D-09  .100000000000D+01  .189500000000D+04  .000000000000D+00
     .240000000000D+01  .000000000000D+00  .325962901115D-08  .630000000000D+02
     .576060000000D+05  .400000000000D+01
